0 COSMOS 1503
1 14401U 83103A   13282.15723953  .00000122  00000-0  55429-4 0  5402
2 14401 074.0435 285.4426 0012199 099.4626 306.3490 14.31804507566267
0 COSMOS 1503
1 14401U 83103A   13283.50856640  .00000102  00000-0  47648-4 0  5415
2 14401 074.0434 282.9797 0012199 096.5836 071.8450 14.31805152566458
0 COSMOS 1503
1 14401U 83103A   13285.59921051  .00000090  00000-0  43407-4 0  5432
2 14401 074.0434 279.1692 0012217 091.7998 048.5322 14.31805537566756
0 COSMOS 1503
1 14401U 83103A   13287.11801576  .00000085  00000-0  41602-4 0  5441
2 14401 074.0436 276.4009 0012255 088.2483 317.6267 14.31806056566971
0 COSMOS 1503
1 14401U 83103A   13288.16806013  .00000115  00000-0  52734-4 0  5451
2 14401 074.0438 274.4870 0012255 085.9483 330.2122 14.31806646567125
0 COSMOS 1503
1 14401U 83103A   13289.51071787  .00000091  00000-0  43751-4 0  5466
2 14401 074.0440 272.0397 0012264 082.9577 051.1646 14.31807118567313
0 COSMOS 1503
1 14401U 83103A   13290.55976362  .00000141  00000-0  62175-4 0  5473
2 14401 074.0443 270.1277 0012284 080.5782 058.6901 14.31807127567468
0 COSMOS 1503
1 14401U 83103A   13292.15590380  .00000159  00000-0  69067-4 0  5480
2 14401 074.0445 267.2188 0012326 076.9636 006.3218 14.31807401567693
0 COSMOS 1503
1 14401U 83103A   13293.20693561  .00000167  00000-0  72036-4 0  5492
2 14401 074.0446 265.3034 0012334 074.6128 024.0521 14.31807837567847
0 COSMOS 1503
1 14401U 83103A   13294.47146617  .00000168  00000-0  72360-4 0  5500
2 14401 074.0446 262.9989 0012351 071.7803 062.3060 14.31808438568028
0 COSMOS 1503
1 14401U 83103A   13295.52060865  .00000175  00000-0  74980-4 0  5516
2 14401 074.0447 261.0869 0012367 069.4733 070.2614 14.31808689568176
